CCSDS_OMM_VERS = 2.0
CREATION_DATE  = 
ORIGINATOR     = 

OBJECT_NAME    = SL-3 R/B
OBJECT_ID      = 1982-079B
CENTER_NAME    = EARTH
REF_FRAME      = TEME
TIME_SYSTEM    = UTC
MEAN_ELEMENT_THEORY = SGP/SGP4

EPOCH          = 2026-02-16T03:21:31.757760
MEAN_MOTION    = 15.24464320
ECCENTRICITY   = .0024254
INCLINATION    = 81.1443
RA_OF_ASC_NODE = 218.5162
ARG_OF_PERICENTER = 238.3812
MEAN_ANOMALY   = 121.5054

EPHEMERIS_TYPE = 0
CLASSIFICATION_TYPE = U
NORAD_CAT_ID   = 13403
ELEMENT_SET_NO = 999
REV_AT_EPOCH   = 37441
BSTAR          = .26881E-3
MEAN_MOTION_DOT = .668E-4
MEAN_MOTION_DDOT = 0

CCSDS_OMM_VERS = 2.0
CREATION_DATE  = 
ORIGINATOR     = 

OBJECT_NAME    = SL-14 R/B
OBJECT_ID      = 1982-092B
CENTER_NAME    = EARTH
REF_FRAME      = TEME
TIME_SYSTEM    = UTC
MEAN_ELEMENT_THEORY = SGP/SGP4

EPOCH          = 2026-02-15T20:19:29.690688
MEAN_MOTION    = 14.86642532
ECCENTRICITY   = .0020726
INCLINATION    = 82.5709
RA_OF_ASC_NODE = 161.8235
ARG_OF_PERICENTER = 18.0187
MEAN_ANOMALY   = 100.6890

EPHEMERIS_TYPE = 0
CLASSIFICATION_TYPE = U
NORAD_CAT_ID   = 13553
ELEMENT_SET_NO = 999
REV_AT_EPOCH   = 32568
BSTAR          = .62869E-4
MEAN_MOTION_DOT = .585E-5
MEAN_MOTION_DDOT = 0

CCSDS_OMM_VERS = 2.0
CREATION_DATE  = 
ORIGINATOR     = 

OBJECT_NAME    = SL-3 R/B
OBJECT_ID      = 1983-010B
CENTER_NAME    = EARTH
REF_FRAME      = TEME
TIME_SYSTEM    = UTC
MEAN_ELEMENT_THEORY = SGP/SGP4

EPOCH          = 2026-02-16T00:18:23.755680
MEAN_MOTION    = 15.45551294
ECCENTRICITY   = .0018434
INCLINATION    = 81.1024
RA_OF_ASC_NODE = 28.8056
ARG_OF_PERICENTER = 119.1509
MEAN_ANOMALY   = 241.1583

EPHEMERIS_TYPE = 0
CLASSIFICATION_TYPE = U
NORAD_CAT_ID   = 13819
ELEMENT_SET_NO = 999
REV_AT_EPOCH   = 35459
BSTAR          = .34419E-3
MEAN_MOTION_DOT = .16682E-3
MEAN_MOTION_DDOT = 0

CCSDS_OMM_VERS = 2.0
CREATION_DATE  = 
ORIGINATOR     = 

OBJECT_NAME    = SL-3 R/B
OBJECT_ID      = 1983-075B
CENTER_NAME    = EARTH
REF_FRAME      = TEME
TIME_SYSTEM    = UTC
MEAN_ELEMENT_THEORY = SGP/SGP4

EPOCH          = 2026-02-16T03:40:57.811296
MEAN_MOTION    = 15.37856018
ECCENTRICITY   = .0020208
INCLINATION    = 97.6127
RA_OF_ASC_NODE = 50.9271
ARG_OF_PERICENTER = 310.6918
MEAN_ANOMALY   = 49.2570

EPHEMERIS_TYPE = 0
CLASSIFICATION_TYPE = U
NORAD_CAT_ID   = 14208
ELEMENT_SET_NO = 999
REV_AT_EPOCH   = 32684
BSTAR          = .33825E-3
MEAN_MOTION_DOT = .12589E-3
MEAN_MOTION_DDOT = 0

CCSDS_OMM_VERS = 2.0
CREATION_DATE  = 
ORIGINATOR     = 

OBJECT_NAME    = COSMOS 1536
OBJECT_ID      = 1984-013A
CENTER_NAME    = EARTH
REF_FRAME      = TEME
TIME_SYSTEM    = UTC
MEAN_ELEMENT_THEORY = SGP/SGP4

EPOCH          = 2026-02-16T04:17:58.298208
MEAN_MOTION    = 15.23526724
ECCENTRICITY   = .0014198
INCLINATION    = 82.5467
RA_OF_ASC_NODE = 129.2249
ARG_OF_PERICENTER = 4.5312
MEAN_ANOMALY   = 355.6050

EPHEMERIS_TYPE = 0
CLASSIFICATION_TYPE = U
NORAD_CAT_ID   = 14699
ELEMENT_SET_NO = 999
REV_AT_EPOCH   = 26934
BSTAR          = .25433E-3
MEAN_MOTION_DOT = .6121E-4
MEAN_MOTION_DDOT = 0

CCSDS_OMM_VERS = 2.0
CREATION_DATE  = 
ORIGINATOR     = 

OBJECT_NAME    = SL-14 R/B
OBJECT_ID      = 1984-027B
CENTER_NAME    = EARTH
REF_FRAME      = TEME
TIME_SYSTEM    = UTC
MEAN_ELEMENT_THEORY = SGP/SGP4

EPOCH          = 2026-02-16T01:51:51.015456
MEAN_MOTION    = 14.85954409
ECCENTRICITY   = .001915
INCLINATION    = 82.5389
RA_OF_ASC_NODE = 265.2876
ARG_OF_PERICENTER = 48.3656
MEAN_ANOMALY   = 311.9197

EPHEMERIS_TYPE = 0
CLASSIFICATION_TYPE = U
NORAD_CAT_ID   = 14820
ELEMENT_SET_NO = 999
REV_AT_EPOCH   = 24442
BSTAR          = .51835E-4
MEAN_MOTION_DOT = .478E-5
MEAN_MOTION_DDOT = 0

CCSDS_OMM_VERS = 2.0
CREATION_DATE  = 
ORIGINATOR     = 

OBJECT_NAME    = SL-8 R/B
OBJECT_ID      = 1985-006B
CENTER_NAME    = EARTH
REF_FRAME      = TEME
TIME_SYSTEM    = UTC
MEAN_ELEMENT_THEORY = SGP/SGP4

EPOCH          = 2026-02-16T04:15:19.632384
MEAN_MOTION    = 14.37772488
ECCENTRICITY   = .0019228
INCLINATION    = 74.0460
RA_OF_ASC_NODE = 300.7343
ARG_OF_PERICENTER = 222.8827
MEAN_ANOMALY   = 299.2508

EPHEMERIS_TYPE = 0
CLASSIFICATION_TYPE = U
NORAD_CAT_ID   = 15483
ELEMENT_SET_NO = 999
REV_AT_EPOCH   = 15093
BSTAR          = .8221E-4
MEAN_MOTION_DOT = .222E-5
MEAN_MOTION_DDOT = 0

CCSDS_OMM_VERS = 2.0
CREATION_DATE  = 
ORIGINATOR     = 

OBJECT_NAME    = SL-12 R/B(2)
OBJECT_ID      = 1985-042D
CENTER_NAME    = EARTH
REF_FRAME      = TEME
TIME_SYSTEM    = UTC
MEAN_ELEMENT_THEORY = SGP/SGP4

EPOCH          = 2026-02-15T14:43:45.756192
MEAN_MOTION    = 14.21976231
ECCENTRICITY   = .003448
INCLINATION    = 71.1084
RA_OF_ASC_NODE = 134.3698
ARG_OF_PERICENTER = 163.7019
MEAN_ANOMALY   = 299.1803

EPHEMERIS_TYPE = 0
CLASSIFICATION_TYPE = U
NORAD_CAT_ID   = 15772
ELEMENT_SET_NO = 999
REV_AT_EPOCH   = 11125
BSTAR          = .32902E-4
MEAN_MOTION_DOT = .26E-6
MEAN_MOTION_DDOT = 0

CCSDS_OMM_VERS = 2.0
CREATION_DATE  = 
ORIGINATOR     = 

OBJECT_NAME    = SL-14 R/B
OBJECT_ID      = 1985-069B
CENTER_NAME    = EARTH
REF_FRAME      = TEME
TIME_SYSTEM    = UTC
MEAN_ELEMENT_THEORY = SGP/SGP4

EPOCH          = 2026-02-16T01:39:20.924352
MEAN_MOTION    = 14.86406975
ECCENTRICITY   = .0017134
INCLINATION    = 82.5244
RA_OF_ASC_NODE = 45.2662
ARG_OF_PERICENTER = 263.8201
MEAN_ANOMALY   = 96.1064

EPHEMERIS_TYPE = 0
CLASSIFICATION_TYPE = U
NORAD_CAT_ID   = 15945
ELEMENT_SET_NO = 999
REV_AT_EPOCH   = 16962
BSTAR          = .64458E-4
MEAN_MOTION_DOT = .594E-5
MEAN_MOTION_DDOT = 0

CCSDS_OMM_VERS = 2.0
CREATION_DATE  = 
ORIGINATOR     = 

OBJECT_NAME    = SL-16 R/B
OBJECT_ID      = 1985-097B
CENTER_NAME    = EARTH
REF_FRAME      = TEME
TIME_SYSTEM    = UTC
MEAN_ELEMENT_THEORY = SGP/SGP4

EPOCH          = 2026-02-15T19:45:44.707104
MEAN_MOTION    = 14.16594640
ECCENTRICITY   = .00097037
INCLINATION    = 71.0024
RA_OF_ASC_NODE = 186.5845
ARG_OF_PERICENTER = 285.0947
MEAN_ANOMALY   = 183.1515

EPHEMERIS_TYPE = 0
CLASSIFICATION_TYPE = U
NORAD_CAT_ID   = 16182
ELEMENT_SET_NO = 999
REV_AT_EPOCH   = 8413
BSTAR          = -.64382422E-4
MEAN_MOTION_DOT = -.176E-5
MEAN_MOTION_DDOT = 0

CCSDS_OMM_VERS = 2.0
CREATION_DATE  = 
ORIGINATOR     = 

OBJECT_NAME    = SL-14 R/B
OBJECT_ID      = 1986-006B
CENTER_NAME    = EARTH
REF_FRAME      = TEME
TIME_SYSTEM    = UTC
MEAN_ELEMENT_THEORY = SGP/SGP4

EPOCH          = 2026-02-16T02:51:24.396768
MEAN_MOTION    = 14.86786273
ECCENTRICITY   = .0076276
INCLINATION    = 82.5255
RA_OF_ASC_NODE = 280.0419
ARG_OF_PERICENTER = 345.4059
MEAN_ANOMALY   = 14.4954

EPHEMERIS_TYPE = 0
CLASSIFICATION_TYPE = U
NORAD_CAT_ID   = 16496
ELEMENT_SET_NO = 999
REV_AT_EPOCH   = 14600
BSTAR          = .7384E-4
MEAN_MOTION_DOT = .719E-5
MEAN_MOTION_DDOT = 0

CCSDS_OMM_VERS = 2.0
CREATION_DATE  = 
ORIGINATOR     = 

OBJECT_NAME    = COSMOS 1743
OBJECT_ID      = 1986-034A
CENTER_NAME    = EARTH
REF_FRAME      = TEME
TIME_SYSTEM    = UTC
MEAN_ELEMENT_THEORY = SGP/SGP4

EPOCH          = 2026-02-16T04:28:10.539840
MEAN_MOTION    = 15.56961501
ECCENTRICITY   = .0004439
INCLINATION    = 82.5313
RA_OF_ASC_NODE = 96.3717
ARG_OF_PERICENTER = 30.4452
MEAN_ANOMALY   = 329.7060

EPHEMERIS_TYPE = 0
CLASSIFICATION_TYPE = U
NORAD_CAT_ID   = 16719
ELEMENT_SET_NO = 999
REV_AT_EPOCH   = 17690
BSTAR          = .47346E-3
MEAN_MOTION_DOT = .34244E-3
MEAN_MOTION_DDOT = 0

