SL-3 R/B                
1 13403U 82079B   26047.13995090  .00006680  00000+0  26881-3 0  9999
2 13403  81.1443 218.5162 0024254 238.3812 121.5054 15.24464320374411
SL-14 R/B               
1 13553U 82092B   26046.84687142  .00000585  00000+0  62869-4 0  9998
2 13553  82.5709 161.8235 0020726  18.0187 100.6890 14.86642532325687
SL-3 R/B                
1 13819U 83010B   26047.01277495  .00016682  00000+0  34419-3 0  9994
2 13819  81.1024  28.8056 0018434 119.1509 241.1583 15.45551294354596
SL-3 R/B                
1 14208U 83075B   26047.15344689  .00012589  00000+0  33825-3 0  9995
2 14208  97.6127  50.9271 0020208 310.6918  49.2570 15.37856018326847
COSMOS 1536             
1 14699U 84013A   26047.17914697  .00006121  00000+0  25433-3 0  9997
2 14699  82.5467 129.2249 0014198   4.5312 355.6050 15.23526724269345
SL-14 R/B               
1 14820U 84027B   26047.07767379  .00000478  00000+0  51835-4 0  9995
2 14820  82.5389 265.2876 0019150  48.3656 311.9197 14.85954409244422
SL-8 R/B                
1 15483U 85006B   26047.17731056  .00000222  00000+0  82210-4 0  9991
2 15483  74.0460 300.7343 0019228 222.8827 299.2508 14.37772488150931
SL-12 R/B(2)            
1 15772U 85042D   26046.61372403  .00000026  00000+0  32902-4 0  9992
2 15772  71.1084 134.3698 0034480 163.7019 299.1803 14.21976231111253
SL-14 R/B               
1 15945U 85069B   26047.06899218  .00000594  00000+0  64458-4 0  9992
2 15945  82.5244  45.2662 0017134 263.8201  96.1064 14.86406975169624
SL-16 R/B               
1 16182U 85097B   26046.82343411 -.00000176  00000+0 -64382-4 0  9993
2 16182  71.0024 186.5845 0009703 285.0947 183.1515 14.16594640 84135
SL-14 R/B               
1 16496U 86006B   26047.11903237  .00000719  00000+0  73840-4 0  9993
2 16496  82.5255 280.0419 0076276 345.4059  14.4954 14.86786273146007
COSMOS 1743             
1 16719U 86034A   26047.18623310  .00034244  00000+0  47346-3 0  9991
2 16719  82.5313  96.3717 0004439  30.4452 329.7060 15.56961501176908
